[
  {
    "OBJECT_NAME": "NOAA 15",
    "OBJECT_ID": "1998-030A",
    "EPOCH": "2025-05-24T19:47:18.737088",
    "MEAN_MOTION": 14.26970191,
    "ECCENTRICITY": 0.0011152,
    "INCLINATION": 98.5358,
    "RA_OF_ASC_NODE": 170.3344,
    "ARG_OF_PERICENTER": 50.6167,
    "MEAN_ANOMALY": 309.6,
    "EPHEMERIS_TYPE": 0,
    "CLASSIFICATION_TYPE": "U",
    "NORAD_CAT_ID": 25338,
    "ELEMENT_SET_NO": 999,
    "REV_AT_EPOCH": 40615,
    "BSTAR": 0.00010196,
    "MEAN_MOTION_DOT": 2.05e-06,
    "MEAN_MOTION_DDOT": 0
  },
  {
    "OBJECT_NAME": "DMSP 5D-3 F16 (USA 172)",
    "OBJECT_ID": "2003-048A",
    "EPOCH": "2025-05-24T21:16:24.255840",
    "MEAN_MOTION": 14.14352269,
    "ECCENTRICITY": 0.0007571,
    "INCLINATION": 99.0132,
    "RA_OF_ASC_NODE": 160.5801,
    "ARG_OF_PERICENTER": 157.7608,
    "MEAN_ANOMALY": 325.7892,
    "EPHEMERIS_TYPE": 0,
    "CLASSIFICATION_TYPE": "U",
    "NORAD_CAT_ID": 28054,
    "ELEMENT_SET_NO": 999,
    "REV_AT_EPOCH": 11457,
    "BSTAR": 4.6517e-05,
    "MEAN_MOTION_DOT": 4.3e-07,
    "MEAN_MOTION_DDOT": 0
  },
  {
    "OBJECT_NAME": "NOAA 18",
    "OBJECT_ID": "2005-018A",
    "EPOCH": "2025-05-24T20:06:44.988480",
    "MEAN_MOTION": 14.13602464,
    "ECCENTRICITY": 0.0014533,
    "INCLINATION": 98.8421,
    "RA_OF_ASC_NODE": 224.491,
    "ARG_OF_PERICENTER": 169.9265,
    "MEAN_ANOMALY": 190.2202,
    "EPHEMERIS_TYPE": 0,
    "CLASSIFICATION_TYPE": "U",
    "NORAD_CAT_ID": 28654,
    "ELEMENT_SET_NO": 999,
    "REV_AT_EPOCH": 3152,
    "BSTAR": 0.00012498,
    "MEAN_MOTION_DOT": 1.92e-06,
    "MEAN_MOTION_DDOT": 0
  },
  {
    "OBJECT_NAME": "METEOSAT-9 (MSG-2)",
    "OBJECT_ID": "2005-049B",
    "EPOCH": "2025-05-23T21:12:13.929984",
    "MEAN_MOTION": 1.0027265,
    "ECCENTRICITY": 0.000165,
    "INCLINATION": 8.4732,
    "RA_OF_ASC_NODE": 57.8727,
    "ARG_OF_PERICENTER": 1.4808,
    "MEAN_ANOMALY": 186.107,
    "EPHEMERIS_TYPE": 0,
    "CLASSIFICATION_TYPE": "U",
    "NORAD_CAT_ID": 28912,
    "ELEMENT_SET_NO": 999,
    "REV_AT_EPOCH": 7117,
    "BSTAR": 0,
    "MEAN_MOTION_DOT": 1.33e-06,
    "MEAN_MOTION_DDOT": 0
  },
  {
    "OBJECT_NAME": "EWS-G1 (GOES 13)",
    "OBJECT_ID": "2006-018A",
    "EPOCH": "2025-05-24T07:43:38.761824",
    "MEAN_MOTION": 0.98806179,
    "ECCENTRICITY": 0.0062361,
    "INCLINATION": 3.5204,
    "RA_OF_ASC_NODE": 81.1751,
    "ARG_OF_PERICENTER": 265.8735,
    "MEAN_ANOMALY": 337.2863,
    "EPHEMERIS_TYPE": 0,
    "CLASSIFICATION_TYPE": "U",
    "NORAD_CAT_ID": 29155,
    "ELEMENT_SET_NO": 999,
    "REV_AT_EPOCH": 6953,
    "BSTAR": 0,
    "MEAN_MOTION_DOT": -2.09e-06,
    "MEAN_MOTION_DDOT": 0
  },
  {
    "OBJECT_NAME": "DMSP 5D-3 F17 (USA 191)",
    "OBJECT_ID": "2006-050A",
    "EPOCH": "2025-05-24T20:54:46.472544",
    "MEAN_MOTION": 14.14831494,
    "ECCENTRICITY": 0.0011339,
    "INCLINATION": 98.7388,
    "RA_OF_ASC_NODE": 154.4122,
    "ARG_OF_PERICENTER": 85.1923,
    "MEAN_ANOMALY": 275.0545,
    "EPHEMERIS_TYPE": 0,
    "CLASSIFICATION_TYPE": "U",
    "NORAD_CAT_ID": 29522,
    "ELEMENT_SET_NO": 999,
    "REV_AT_EPOCH": 95750,
    "BSTAR": 5.443e-05,
    "MEAN_MOTION_DOT": 6.2e-07,
    "MEAN_MOTION_DDOT": 0
  },
  {
    "OBJECT_NAME": "FENGYUN 3A",
    "OBJECT_ID": "2008-026A",
    "EPOCH": "2025-05-24T17:39:53.862912",
    "MEAN_MOTION": 14.19440052,
    "ECCENTRICITY": 0.0008926,
    "INCLINATION": 98.6474,
    "RA_OF_ASC_NODE": 88.8387,
    "ARG_OF_PERICENTER": 160.2429,
    "MEAN_ANOMALY": 199.9095,
    "EPHEMERIS_TYPE": 0,
    "CLASSIFICATION_TYPE": "U",
    "NORAD_CAT_ID": 32958,
    "ELEMENT_SET_NO": 999,
    "REV_AT_EPOCH": 88040,
    "BSTAR": 6.5961e-05,
    "MEAN_MOTION_DOT": 9.6e-07,
    "MEAN_MOTION_DDOT": 0
  },
  {
    "OBJECT_NAME": "NOAA 19",
    "OBJECT_ID": "2009-005A",
    "EPOCH": "2025-05-24T20:12:22.840128",
    "MEAN_MOTION": 14.13366222,
    "ECCENTRICITY": 0.0014489,
    "INCLINATION": 98.9978,
    "RA_OF_ASC_NODE": 209.4574,
    "ARG_OF_PERICENTER": 51.8139,
    "MEAN_ANOMALY": 308.4336,
    "EPHEMERIS_TYPE": 0,
    "CLASSIFICATION_TYPE": "U",
    "NORAD_CAT_ID": 33591,
    "ELEMENT_SET_NO": 999,
    "REV_AT_EPOCH": 83988,
    "BSTAR": 0.00012249,
    "MEAN_MOTION_DOT": 1.85e-06,
    "MEAN_MOTION_DDOT": 0
  },
  {
    "OBJECT_NAME": "GOES 14",
    "OBJECT_ID": "2009-033A",
    "EPOCH": "2025-05-24T10:58:42.878208",
    "MEAN_MOTION": 1.00271513,
    "ECCENTRICITY": 0.0001464,
    "INCLINATION": 0.6744,
    "RA_OF_ASC_NODE": 88.2582,
    "ARG_OF_PERICENTER": 52.6845,
    "MEAN_ANOMALY": 157.6687,
    "EPHEMERIS_TYPE": 0,
    "CLASSIFICATION_TYPE": "U",
    "NORAD_CAT_ID": 35491,
    "ELEMENT_SET_NO": 999,
    "REV_AT_EPOCH": 269,
    "BSTAR": 0,
    "MEAN_MOTION_DOT": -5.7e-07,
    "MEAN_MOTION_DDOT": 0
  },
  {
    "OBJECT_NAME": "DMSP 5D-3 F18 (USA 210)",
    "OBJECT_ID": "2009-057A",
    "EPOCH": "2025-05-24T20:57:06.598656",
    "MEAN_MOTION": 14.14622064,
    "ECCENTRICITY": 0.0009899,
    "INCLINATION": 98.8587,
    "RA_OF_ASC_NODE": 122.5784,
    "ARG_OF_PERICENTER": 276.2813,
    "MEAN_ANOMALY": 83.7232,
    "EPHEMERIS_TYPE": 0,
    "CLASSIFICATION_TYPE": "U",
    "NORAD_CAT_ID": 35951,
    "ELEMENT_SET_NO": 999,
    "REV_AT_EPOCH": 80466,
    "BSTAR": 0.00015282,
    "MEAN_MOTION_DOT": 2.49e-06,
    "MEAN_MOTION_DDOT": 0
  },
  {
    "OBJECT_NAME": "EWS-G2 (GOES 15)",
    "OBJECT_ID": "2010-008A",
    "EPOCH": "2025-05-24T15:08:29.983776",
    "MEAN_MOTION": 1.00266848,
    "ECCENTRICITY": 0.0001552,
    "INCLINATION": 0.2692,
    "RA_OF_ASC_NODE": 85.8542,
    "ARG_OF_PERICENTER": 126.0453,
    "MEAN_ANOMALY": 319.2686,
    "EPHEMERIS_TYPE": 0,
    "CLASSIFICATION_TYPE": "U",
    "NORAD_CAT_ID": 36411,
    "ELEMENT_SET_NO": 999,
    "REV_AT_EPOCH": 5574,
    "BSTAR": 0,
    "MEAN_MOTION_DOT": 4.6e-07,
    "MEAN_MOTION_DDOT": 0
  },
  {
    "OBJECT_NAME": "COMS 1",
    "OBJECT_ID": "2010-032A",
    "EPOCH": "2025-05-24T19:01:38.555904",
    "MEAN_MOTION": 1.0027129,
    "ECCENTRICITY": 8.08e-05,
    "INCLINATION": 3.8147,
    "RA_OF_ASC_NODE": 80.2177,
    "ARG_OF_PERICENTER": 339.5591,
    "MEAN_ANOMALY": 236.3995,
    "EPHEMERIS_TYPE": 0,
    "CLASSIFICATION_TYPE": "U",
    "NORAD_CAT_ID": 36744,
    "ELEMENT_SET_NO": 999,
    "REV_AT_EPOCH": 5475,
    "BSTAR": 0,
    "MEAN_MOTION_DOT": -3.35e-06,
    "MEAN_MOTION_DDOT": 0
  },
  {
    "OBJECT_NAME": "FENGYUN 3B",
    "OBJECT_ID": "2010-059A",
    "EPOCH": "2025-05-24T20:28:05.907360",
    "MEAN_MOTION": 14.14726127,
    "ECCENTRICITY": 0.0021702,
    "INCLINATION": 99.0138,
    "RA_OF_ASC_NODE": 183.0839,
    "ARG_OF_PERICENTER": 204.082,
    "MEAN_ANOMALY": 329.3338,
    "EPHEMERIS_TYPE": 0,
    "CLASSIFICATION_TYPE": "U",
    "NORAD_CAT_ID": 37214,
    "ELEMENT_SET_NO": 999,
    "REV_AT_EPOCH": 75255,
    "BSTAR": 5.4475e-05,
    "MEAN_MOTION_DOT": 5.9e-07,
    "MEAN_MOTION_DDOT": 0
  },
  {
    "OBJECT_NAME": "SUOMI NPP",
    "OBJECT_ID": "2011-061A",
    "EPOCH": "2025-05-24T19:45:49.987008",
    "MEAN_MOTION": 14.19534172,
    "ECCENTRICITY": 0.0001881,
    "INCLINATION": 98.7574,
    "RA_OF_ASC_NODE": 84.2652,
    "ARG_OF_PERICENTER": 36.6611,
    "MEAN_ANOMALY": 323.4693,
    "EPHEMERIS_TYPE": 0,
    "CLASSIFICATION_TYPE": "U",
    "NORAD_CAT_ID": 37849,
    "ELEMENT_SET_NO": 999,
    "REV_AT_EPOCH": 70333,
    "BSTAR": 4.7203e-05,
    "MEAN_MOTION_DOT": 5.6e-07,
    "MEAN_MOTION_DDOT": 0
  }
]