NOAA 15                 
1 25338U 98030A   25144.82452242  .00000205  00000+0  10196-3 0  9992
2 25338  98.5358 170.3344 0011152  50.6167 309.6000 14.26970191406152
DMSP 5D-3 F16 (USA 172) 
1 28054U 03048A   25144.88639185  .00000043  00000+0  46517-4 0  9991
2 28054  99.0132 160.5801 0007571 157.7608 325.7892 14.14352269114571
NOAA 18                 
1 28654U 05018A   25144.83802070  .00000192  00000+0  12498-3 0  9991
2 28654  98.8421 224.4910 0014533 169.9265 190.2202 14.13602464 31523
METEOSAT-9 (MSG-2)      
1 28912U 05049B   25143.88349456  .00000133  00000+0  00000+0 0  9997
2 28912   8.4732  57.8727 0001650   1.4808 186.1070  1.00272650 71179
EWS-G1 (GOES 13)        
1 29155U 06018A   25144.32197641 -.00000209  00000+0  00000+0 0  9996
2 29155   3.5204  81.1751 0062361 265.8735 337.2863  0.98806179 69538
DMSP 5D-3 F17 (USA 191) 
1 29522U 06050A   25144.87137121  .00000062  00000+0  54430-4 0  9994
2 29522  98.7388 154.4122 0011339  85.1923 275.0545 14.14831494957502
FENGYUN 3A              
1 32958U 08026A   25144.73604008  .00000096  00000+0  65961-4 0  9992
2 32958  98.6474  88.8387 0008926 160.2429 199.9095 14.19440052880400
NOAA 19                 
1 33591U 09005A   25144.84193102  .00000185  00000+0  12249-3 0  9993
2 33591  98.9978 209.4574 0014489  51.8139 308.4336 14.13366222839880
GOES 14                 
1 35491U 09033A   25144.45744072 -.00000057  00000+0  00000+0 0  9997
2 35491   0.6744  88.2582 0001464  52.6845 157.6687  1.00271513  2690
DMSP 5D-3 F18 (USA 210) 
1 35951U 09057A   25144.87299304  .00000249  00000+0  15282-3 0  9997
2 35951  98.8587 122.5784 0009899 276.2813  83.7232 14.14622064804662
EWS-G2 (GOES 15)        
1 36411U 10008A   25144.63090259  .00000046  00000+0  00000+0 0  9992
2 36411   0.2692  85.8542 0001552 126.0453 319.2686  1.00266848 55743
COMS 1                  
1 36744U 10032A   25144.79280736 -.00000335  00000+0  00000+0 0  9998
2 36744   3.8147  80.2177 0000808 339.5591 236.3995  1.00271290 54755
FENGYUN 3B              
1 37214U 10059A   25144.85284615  .00000059  00000+0  54475-4 0  9999
2 37214  99.0138 183.0839 0021702 204.0820 329.3338 14.14726127752559
SUOMI NPP               
1 37849U 11061A   25144.82349522  .00000056  00000+0  47203-4 0  9991
2 37849  98.7574  84.2652 0001881  36.6611 323.4693 14.19534172703334
